{
  "type": "FeatureCollection",
  "features": [
    {
      "type": "Feature",
      "properties": {
        "norad_id": 38060,
        "name": "COSMOS 2251 DEB",
        "group": "cosmos-2251-debris",
        "lat": -70.69815447846057,
        "lon": 151.51936474793413,
        "alt_km": 708.7617610606721,
        "timestamp": "2025-12-22T09:53:37.798037+00:00",
        "meta_object_name": "COSMOS 2251 DEB",
        "meta_object_id": "1993-036BRS",
        "meta_epoch": "2025-12-21T01:33:01.988640",
        "meta_mean_motion": 14.63900324,
        "meta_eccentricity": 0.00584879,
        "meta_inclination": 74.0436,
        "meta_ra_of_asc_node": 279.3269,
        "meta_arg_of_pericenter": 23.1556,
        "meta_mean_anomaly": 337.2227,
        "meta_ephemeris_type": 0,
        "meta_classification_type": "U",
        "meta_norad_cat_id": 38060,
        "meta_element_set_no": 999,
        "meta_rev_at_epoch": 72086,
        "meta_bstar": 0.00036511571,
        "meta_mean_motion_dot": 1.926e-05,
        "meta_mean_motion_ddot": 0,
        "tle_line1": "1 38060U 93036BRS 25355.06460635  .00001926  00000+0  36512-3 0  9995",
        "tle_line2": "2 38060  74.0436 279.3269 0058487  23.1556 337.2227 14.63900324720866"
      },
      "geometry": {
        "type": "Point",
        "coordinates": [
          151.51936474793413,
          -70.69815447846057
        ]
      }
    },
    {
      "type": "Feature",
      "properties": {
        "norad_id": 38062,
        "name": "COSMOS 2251 DEB",
        "group": "cosmos-2251-debris",
        "lat": -50.54570219874994,
        "lon": 111.32134864994326,
        "alt_km": 596.8231555980674,
        "timestamp": "2025-12-22T09:53:37.798046+00:00",
        "meta_object_name": "COSMOS 2251 DEB",
        "meta_object_id": "1993-036BRU",
        "meta_epoch": "2025-12-20T12:40:12.328608",
        "meta_mean_motion": 14.95206267,
        "meta_eccentricity": 0.00129431,
        "meta_inclination": 74.0088,
        "meta_ra_of_asc_node": 274.7346,
        "meta_arg_of_pericenter": 42.7602,
        "meta_mean_anomaly": 131.9089,
        "meta_ephemeris_type": 0,
        "meta_classification_type": "U",
        "meta_norad_cat_id": 38062,
        "meta_element_set_no": 999,
        "meta_rev_at_epoch": 63146,
        "meta_bstar": 0.0014745207,
        "meta_mean_motion_dot": 0.00016237,
        "meta_mean_motion_ddot": 0,
        "tle_line1": "1 38062U 93036BRU 25354.52792047  .00016237  00000+0  14745-2 0  9996",
        "tle_line2": "2 38062  74.0088 274.7346 0012943  42.7602 131.9089 14.95206267631464"
      },
      "geometry": {
        "type": "Point",
        "coordinates": [
          111.32134864994326,
          -50.54570219874994
        ]
      }
    },
    {
      "type": "Feature",
      "properties": {
        "norad_id": 38064,
        "name": "COSMOS 2251 DEB",
        "group": "cosmos-2251-debris",
        "lat": -59.91427927005756,
        "lon": -44.58888816365521,
        "alt_km": 680.3975309554498,
        "timestamp": "2025-12-22T09:53:37.798056+00:00",
        "meta_object_name": "COSMOS 2251 DEB",
        "meta_object_id": "1993-036BRW",
        "meta_epoch": "2025-12-21T14:38:27.144960",
        "meta_mean_motion": 14.56367522,
        "meta_eccentricity": 0.0047142,
        "meta_inclination": 74.0231,
        "meta_ra_of_asc_node": 107.2956,
        "meta_arg_of_pericenter": 225.3304,
        "meta_mean_anomaly": 134.4015,
        "meta_ephemeris_type": 0,
        "meta_classification_type": "U",
        "meta_norad_cat_id": 38064,
        "meta_element_set_no": 999,
        "meta_rev_at_epoch": 71994,
        "meta_bstar": 0.00076532,
        "meta_mean_motion_dot": 3.417e-05,
        "meta_mean_motion_ddot": 0,
        "tle_line1": "1 38064U 93036BRW 25355.61003640  .00003417  00000+0  76532-3 0  9992",
        "tle_line2": "2 38064  74.0231 107.2956 0047142 225.3304 134.4015 14.56367522719946"
      },
      "geometry": {
        "type": "Point",
        "coordinates": [
          -44.58888816365521,
          -59.91427927005756
        ]
      }
    },
    {
      "type": "Feature",
      "properties": {
        "norad_id": 38067,
        "name": "COSMOS 2251 DEB",
        "group": "cosmos-2251-debris",
        "lat": 29.755554477954924,
        "lon": -94.57839054430951,
        "alt_km": 639.0591446411981,
        "timestamp": "2025-12-22T09:53:37.798066+00:00",
        "meta_object_name": "COSMOS 2251 DEB",
        "meta_object_id": "1993-036BRZ",
        "meta_epoch": "2025-12-20T00:18:38.290752",
        "meta_mean_motion": 14.61151533,
        "meta_eccentricity": 0.00696951,
        "meta_inclination": 74.0171,
        "meta_ra_of_asc_node": 260.5817,
        "meta_arg_of_pericenter": 46.2502,
        "meta_mean_anomaly": 329.5601,
        "meta_ephemeris_type": 0,
        "meta_classification_type": "U",
        "meta_norad_cat_id": 38067,
        "meta_element_set_no": 999,
        "meta_rev_at_epoch": 62662,
        "meta_bstar": 0.00024256948,
        "meta_mean_motion_dot": 1.204e-05,
        "meta_mean_motion_ddot": 0,
        "tle_line1": "1 38067U 93036BRZ 25354.01294318  .00001204  00000+0  24257-3 0  9991",
        "tle_line2": "2 38067  74.0171 260.5817 0069695  46.2502 329.5601 14.61151533626627"
      },
      "geometry": {
        "type": "Point",
        "coordinates": [
          -94.57839054430951,
          29.755554477954924
        ]
      }
    },
    {
      "type": "Feature",
      "properties": {
        "norad_id": 38068,
        "name": "COSMOS 2251 DEB",
        "group": "cosmos-2251-debris",
        "lat": -0.02861943815469942,
        "lon": -69.52202899941183,
        "alt_km": 757.8903126403693,
        "timestamp": "2025-12-22T09:53:37.798076+00:00",
        "meta_object_name": "COSMOS 2251 DEB",
        "meta_object_id": "1993-036BSA",
        "meta_epoch": "2025-11-26T00:12:22.263264",
        "meta_mean_motion": 14.35960004,
        "meta_eccentricity": 0.00240903,
        "meta_inclination": 74.0219,
        "meta_ra_of_asc_node": 338.9788,
        "meta_arg_of_pericenter": 72.1007,
        "meta_mean_anomaly": 288.2769,
        "meta_ephemeris_type": 0,
        "meta_classification_type": "U",
        "meta_norad_cat_id": 38068,
        "meta_element_set_no": 999,
        "meta_rev_at_epoch": 66406,
        "meta_bstar": 0.00028750999,
        "meta_mean_motion_dot": 8.11e-06,
        "meta_mean_motion_ddot": 0,
        "tle_line1": "1 38068U 93036BSA 25330.00859101  .00000811  00000+0  28751-3 0  9998",
        "tle_line2": "2 38068  74.0219 338.9788 0024090  72.1007 288.2769 14.35960004664064"
      },
      "geometry": {
        "type": "Point",
        "coordinates": [
          -69.52202899941183,
          -0.02861943815469942
        ]
      }
    },
    {
      "type": "Feature",
      "properties": {
        "norad_id": 38197,
        "name": "COSMOS 2251 DEB",
        "group": "cosmos-2251-debris",
        "lat": -57.419818895443555,
        "lon": -175.1552854881346,
        "alt_km": 576.0231229116662,
        "timestamp": "2025-12-22T09:53:37.798086+00:00",
        "meta_object_name": "COSMOS 2251 DEB",
        "meta_object_id": "1993-036BSM",
        "meta_epoch": "2025-12-21T16:31:05.951712",
        "meta_mean_motion": 14.74412737,
        "meta_eccentricity": 0.012488,
        "meta_inclination": 73.938,
        "meta_ra_of_asc_node": 339.4684,
        "meta_arg_of_pericenter": 214.7346,
        "meta_mean_anomaly": 144.563,
        "meta_ephemeris_type": 0,
        "meta_classification_type": "U",
        "meta_norad_cat_id": 38197,
        "meta_element_set_no": 999,
        "meta_rev_at_epoch": 85887,
        "meta_bstar": 0.0023695,
        "meta_mean_motion_dot": 0.00017843,
        "meta_mean_motion_ddot": 0,
        "tle_line1": "1 38197U 93036BSM 25355.68826333  .00017843  00000+0  23695-2 0  9997",
        "tle_line2": "2 38197  73.9380 339.4684 0124880 214.7346 144.5630 14.74412737858876"
      },
      "geometry": {
        "type": "Point",
        "coordinates": [
          -175.1552854881346,
          -57.419818895443555
        ]
      }
    },
    {
      "type": "Feature",
      "properties": {
        "norad_id": 38199,
        "name": "COSMOS 2251 DEB",
        "group": "cosmos-2251-debris",
        "lat": -0.12157048164598673,
        "lon": -133.66788580357658,
        "alt_km": 1257.3859802538927,
        "timestamp": "2025-12-22T09:53:37.798095+00:00",
        "meta_object_name": "COSMOS 2251 DEB",
        "meta_object_id": "1993-036BSP",
        "meta_epoch": "2025-12-21T11:53:06.796320",
        "meta_mean_motion": 13.64805558,
        "meta_eccentricity": 0.03700621,
        "meta_inclination": 73.9558,
        "meta_ra_of_asc_node": 47.8032,
        "meta_arg_of_pericenter": 332.5446,
        "meta_mean_anomaly": 25.6532,
        "meta_ephemeris_type": 0,
        "meta_classification_type": "U",
        "meta_norad_cat_id": 38199,
        "meta_element_set_no": 999,
        "meta_rev_at_epoch": 61141,
        "meta_bstar": 0.00052194647,
        "meta_mean_motion_dot": 6.47e-06,
        "meta_mean_motion_ddot": 0,
        "tle_line1": "1 38199U 93036BSP 25355.49521755  .00000647  00000+0  52195-3 0  9990",
        "tle_line2": "2 38199  73.9558  47.8032 0370062 332.5446  25.6532 13.64805558611419"
      },
      "geometry": {
        "type": "Point",
        "coordinates": [
          -133.66788580357658,
          -0.12157048164598673
        ]
      }
    }
  ]
}